C/2021 K2 (MASTER),h,09/09.1252/2021,100.8394,282.2479,343.3198,1.000624,5.466626,2000,8.0,4.0
# From MPEC 2021-R75
C/2021 K3 (Catalina),h,02/02.3837/2022,134.8045,114.4394,181.9633,1.007112,5.231001,2000,10.0,4.0
# From MPEC 2021-S45
P/2021 L2 (Leonard),e,21.0683,266.6697,51.5347,4.053426,0.1207732,0.52175201,8.5116,10/03.0/2021,2000,g 17.0,4.0
# From MPEC 2021-S45
C/2021 L3 (Borisov),h,02/13.3533/2022,78.5799,344.9691,91.5769,1.000920,8.458066,2000,6.0,4.0
# From MPEC 2021-R75
P/2021 L4 (PANSTARRS),e,16.9617,243.2251,234.6211,3.164969,0.1750450,0.11861490,133.0207,10/03.0/2021,2000,g 13.5,4.0
# From MPEC 2021-P47
P/2021 N1 (ZTF),e,11.5060,301.1634,21.1911,2.977010,0.1918817,0.67678351,22.7279,10/03.0/2021,2000,g 19.0,4.0
# From MPEC 2021-S45
P/2021 N2 (Fuls),e,13.0613,221.7454,177.2268,6.938990,0.0539212,0.45275904,357.8119,10/03.0/2021,2000,g  9.5,4.0
# From MPEC 2021-S45
C/2021 N3 (PANSTARRS),e,26.7455,337.4977,304.4849,161.9976,0.0004780,0.96479805,0.1965,10/03.0/2021,2000,g  8.5,4.0
# From MPEC 2021-R75
C/2021 O1 (Nishimura),h,08/13.9281/2021,27.5726,41.6080,74.4506,1.000174,0.786984,2000,10.5,4.0
# From MPEC 2021-S45
C/2021 O3 (PANSTARRS),h,04/21.0128/2022,56.7716,189.0275,299.9825,1.000204,0.287244,2000,10.5,4.0
# From MPEC 2021-S45
C/2021 P1 (PANSTARRS),e,51.6211,359.6715,40.3511,28756,0.0000002,0.99984785,0.0000,06/01.6451/2022,2000,g 11.0,4.0
# From MPEC 2021-S45
C/2021 P2 (PANSTARRS),e,150.0190,31.9936,76.4954,2498,0.0000079,0.99796932,0.0000,01/21.8503/2023,2000,g  9.0,4.0
# From MPEC 2021-S45
P/2021 P3 (PANSTARRS),e,27.1495,358.2372,334.1816,4.420473,0.1060476,0.34042543,13.2744,10/03.0/2021,2000,g 14.0,4.0
# From MPEC 2021-S45
C/2021 P4 (ATLAS),e,56.3112,348.0952,175.8312,310.1912,0.0001804,0.99651762,0.0000,07/30.3616/2022,2000,g  9.5,4.0
# From MPEC 2021-S45
C/2021 Q3 (ATLAS),e,77.7764,307.9259,114.0505,75.36517,0.0015064,0.93091165,359.8271,10/03.0/2021,2000,g  8.0,4.0
# From MPEC 2021-S45
C/2021 Q4 (Fuls),h,06/08.8952/2023,71.4743,183.3306,146.8923,1.003544,7.567385,2000,6.0,4.0
# From MPEC 2021-S45
P/2021 Q5 (ATLAS),e,10.7349,239.7810,180.8990,3.288437,0.1652798,0.62454756,5.5471,10/03.0/2021,2000,g 15.0,4.0
# From MPEC 2021-S45
C/2021 Q6 (PANSTARRS),e,161.8468,133.5429,140.7880,7191,0.0000016,0.99878775,0.0000,03/21.1580/2024,2000,g  6.0,4.0
# From MPEC 2021-S45
P/2021 R1 (PANSTARRS),e,5.5212,143.4082,220.2721,8.440458,0.0401934,0.42116231,356.9784,10/03.0/2021,2000,g 11.0,4.0
# From MPEC 2021-S45
C/2021 R2 (PANSTARRS),e,134.4636,16.2791,32.0483,2946,0.0000062,0.99751685,0.0000,12/21.5214/2021,2000,g  7.5,4.0
# From MPEC 2021-S45
P/2021 R3 (PANSTARRS),e,19.9300,304.2479,2.9973,3.779819,0.1341212,0.33189581,17.2907,10/03.0/2021,2000,g 16.0,4.0
# From MPEC 2021-S45
P/2021 R4 (Wierzchos),e,21.0731,321.3250,56.3957,5.648311,0.0734220,0.58774079,359.2331,10/03.0/2021,2000,g 16.0,4.0
# From MPEC 2021-S45
P/2021 R5 (Rankin),e,7.8499,219.9794,167.0220,4.801129,0.0936891,0.30747547,350.6838,10/03.0/2021,2000,g 12.0,4.0
# From MPEC 2021-T21
C/2021 S1 (ATLAS),h,12/26.6678/2021,51.7093,300.4425,141.9226,1.022869,6.215283,2000,7.0,4.0
# From  98, 1083
1P/Halley,e,162.2432,58.8135,111.7462,17.87286,0.0130441,0.96621109,169.8415,10/03.0/2021,2000,g  4.0,6.0
# From MPEC 2021-S45
2P/Encke,e,11.8057,334.5141,186.6291,2.217930,0.2983887,0.84925399,138.1816,10/03.0/2021,2000,g 11.5,6.0
# From MPEC 2021-S45
4P/Faye,e,8.0083,192.9314,206.9972,3.823495,0.1318297,0.57660252,3.1860,10/03.0/2021,2000,g  8.0,6.0
# From MPEC 2021-S45
6P/d'Arrest,e,19.5124,138.9355,178.0997,3.498563,0.1506154,0.61281007,2.2928,10/03.0/2021,2000,g  7.5,16.0
# From MPEC 2021-S45
7P/Pons-Winnecke,e,22.3623,93.3705,172.5970,3.414305,0.1562250,0.63852530,20.1356,10/03.0/2021,2000,g 10.0,6.0
# From MPEC 2021-S45
8P/Tuttle,e,54.9107,270.2037,207.4864,5.708242,0.0722688,0.82025754,2.6208,10/03.0/2021,2000,g  8.0,8.0
# From MPEC 2021-F20
9P/Tempel,e,10.4697,68.7166,179.3443,3.146460,0.1765919,0.50921829,332.9917,10/03.0/2021,2000,g 12.5,4.0
# From MPEC 2021-S45
10P/Tempel,e,12.0394,117.8082,195.4956,3.060791,0.1840575,0.53853138,35.4760,10/03.0/2021,2000,g  5.0,10.0
# From MPEC 2017-L52
11P/Tempel-Swift-LINEAR,e,14.4207,238.9053,167.9552,3.283538,0.1656499,0.57709818,51.4764,10/03.0/2021,2000,g  9.0,4.0
# From  27, 604
12P/Pons-Brooks,e,74.1356,255.7751,198.9947,17.14536,0.0138830,0.95439933,347.0789,10/03.0/2021,2000,g  5.0,6.0
# From  27, 604
13P/Olbers,e,44.6210,85.9158,64.4349,16.72846,0.0144052,0.92976685,345.5612,10/03.0/2021,2000,g  5.0,6.0
# From MPEC 2021-F20
14P/Wolf,e,27.9157,202.0503,159.0237,4.258497,0.1121552,0.35705694,157.0145,10/03.0/2021,2000,g  5.5,12.0
# From MPEC 2021-S45
15P/Finlay,e,6.7976,13.7133,347.8251,3.505626,0.1501605,0.71702684,12.2420,10/03.0/2021,2000,g 12.0,4.0
# From MPEC 2021-S45
16P/Brooks,e,3.0116,138.8646,245.1887,3.656063,0.1409885,0.48627695,23.6483,10/03.0/2021,2000,g  7.5,10.0
# From MPEC 2021-S45
17P/Holmes,e,19.0322,326.6200,24.4786,3.635451,0.1421892,0.42763261,32.0147,10/03.0/2021,2000,g 10.0,6.0
# From MPEC 2021-S45
19P/Borrelly,e,29.3040,74.2498,351.9072,3.605711,0.1439520,0.63770621,342.4642,10/03.0/2021,2000,g 12.6,4.0
# From MPEC 2021-F20
21P/Giacobini-Zinner,e,32.0418,195.3471,172.8613,3.495655,0.1508034,0.71105198,168.6200,10/03.0/2021,2000,g 11.4,4.0
# From MPEC 2021-S45
22P/Kopff,e,4.7420,120.8360,163.0099,3.440742,0.1544280,0.54879894,334.3471,10/03.0/2021,2000,g  3.0,10.4
# From MPC 14747
23P/Brorsen-Metcalf,e,19.1382,312.3996,128.8187,16.94895,0.0141250,0.97145343,0.0000,08/04.7987/1989,2000,g 10.0,6.0
# From MPC110085
24P/Schaumasse,e,11.5296,78.5726,58.2797,4.053286,0.1207795,0.70818972,171.5640,10/03.0/2021,2000,g  6.5,14.0
# From MPC 94674
26P/Grigg-Skjellerup,e,22.4333,211.5397,2.1763,3.014416,0.1883212,0.64031546,206.7676,10/03.0/2021,2000,g 12.0,16.0
# From MPC 78188
27P/Crommelin,e,29.2245,250.6124,195.9312,9.184586,0.0354091,0.91833886,131.8964,10/03.0/2021,2000,g 12.0,8.0
# From MPEC 2021-S45
28P/Neujmin,e,14.3120,346.3316,347.4117,6.975684,0.0534963,0.77373771,10.9733,10/03.0/2021,2000,g  8.5,6.0
# From MPEC 2021-S45
29P/Schwassmann-Wachmann,e,9.3667,312.3769,49.4360,6.040100,0.0663954,0.04472748,60.9099,10/03.0/2021,2000,g  4.0,4.0
# From MPC110085
30P/Reinmuth,e,8.2145,118.2620,9.6390,3.698959,0.1385431,0.52384405,215.0546,10/03.0/2021,2000,g  9.5,6.0
# From MPEC 2021-F20
31P/Schwassmann-Wachmann,e,4.5474,114.1100,18.1002,4.238224,0.1129609,0.19212939,92.7968,10/03.0/2021,2000,g 13.1,4.0
# From MPC 92276
32P/Comas Sola,e,9.8715,55.9474,54.5047,4.509621,0.1029186,0.55962720,264.1565,10/03.0/2021,2000,g  6.5,8.0
# From MPEC 2013-O31
33P/Daniel,e,22.2997,66.3187,20.5302,4.085786,0.1193413,0.45164569,224.3856,10/03.0/2021,2000,g 10.0,12.0
# From  15, 452
35P/Herschel-Rigollet,e,65.191,356.680,28.966,28.5588,0.006458,0.9739380,0.000,01/05.6283/2092,2000,g  9.0,4.0
# From MPEC 2021-S45
36P/Whipple,e,9.9518,181.8483,200.8765,4.133938,0.1172622,0.26896263,57.3278,10/03.0/2021,2000,g  8.5,6.0
# From MPEC 2021-F20
37P/Forbes,e,8.9572,314.5603,330.1218,3.460451,0.1531105,0.53372420,191.0360,10/03.0/2021,2000,g 13.8,4.0
# From MPEC 2018-S50
38P/Stephan-Oterma,e,18.3651,77.9592,359.5032,11.23741,0.0261641,0.85902208,27.6541,10/03.0/2021,2000,g  3.5,12.0
# From MPEC 2020-W26
39P/Oterma,e,1.5571,299.1180,96.3829,7.377250,0.0491884,0.22355090,330.4146,10/03.0/2021,2000,g  7.0,6.0
# From MPC100283
40P/Vaisala,e,11.4692,133.7776,47.4129,4.952786,0.0894190,0.62961674,225.2597,10/03.0/2021,2000,g  5.5,12.0
# From MPC105240
41P/Tuttle-Giacobini-Kresak,e,9.2209,140.9873,62.2374,3.087406,0.1816827,0.65996641,297.2422,10/03.0/2021,2000,g 10.0,16.0
# From MPC 94283
42P/Neujmin,e,3.9913,150.1757,147.2264,4.872996,0.0916242,0.58528126,216.7622,10/03.0/2021,2000,g 13.0,6.0
# From MPC102956
43P/Wolf-Harrington,e,9.3380,244.1377,224.1193,4.315568,0.1099378,0.43577553,205.6974,10/03.0/2021,2000,g  8.0,6.0
# From MPEC 2021-S45
44P/Reinmuth,e,5.8981,286.4812,58.1242,3.689918,0.1390526,0.42750396,331.8538,10/03.0/2021,2000,g  8.3,6.0
# From MPC103849
45P/Honda-Mrkos-Pajdusakova,e,4.3231,87.7063,327.9124,3.052390,0.1848179,0.81749533,322.1959,10/03.0/2021,2000,g 13.5,8.0
# From MPEC 2021-O56
46P/Wirtanen,e,11.7445,82.1571,356.3375,3.091979,0.1812798,0.65834150,185.9736,10/03.0/2021,2000,g 14.0,6.0
# From MPEC 2021-S45
47P/Ashbrook-Jackson,e,13.0405,356.9210,357.6502,4.123779,0.1176958,0.31847267,185.2568,10/03.0/2021,2000,g 12.5,4.0
# From MPEC 2021-F20
48P/Johnson,e,12.2057,110.1221,216.6695,3.500883,0.1504657,0.42743610,172.5862,10/03.0/2021,2000,g 12.4,4.0
# From MPEC 2021-F20
49P/Arend-Rigaux,e,19.0457,118.7975,332.9387,3.569836,0.1461274,0.59823090,171.9744,10/03.0/2021,2000,g 13.4,4.0
# From MPEC 2015-S97
50P/Arend,e,19.1005,355.1771,49.3095,4.088629,0.1192168,0.52910439,246.3579,10/03.0/2021,2000,g  9.5,6.0
# From NK 3014
51P-A/Harrington,e,5.4258,83.6764,269.2583,3.708006,0.1380363,0.54347285,309.4859,10/03.0/2021,2000,g 10.0,8.0
# From NK 3013
51P-D/Harrington,e,5.4266,83.6613,269.2969,3.707018,0.1380915,0.54340268,309.7630,10/03.0/2021,2000,g 16.0,8.0
# From MPEC 2021-S45
52P/Harrington-Abell,e,10.2317,336.8379,139.5939,3.864262,0.1297490,0.54008483,359.7155,10/03.0/2021,2000,g 13.5,6.0
# From MPC100283
53P/Van Biesbroeck,e,6.6096,148.8099,134.4922,5.428115,0.0779346,0.55167625,154.4026,10/03.0/2021,2000,g  7.7,4.8
# From MPC 89011
54P/de Vico-Swift-NEAT,e,6.0645,358.8166,1.7920,3.791119,0.1335220,0.42613549,217.5824,10/03.0/2021,2000,g  9.0,4.0
# From MPC 31070
55P/Tempel-Tuttle,e,162.4435,235.4085,172.4962,10.35550,0.0295766,0.90602320,256.0527,10/03.0/2021,2000,g  9.0,4.0
# From MPC101100
56P/Slaughter-Burnham,e,8.1614,345.9963,43.9792,5.068795,0.0863668,0.50773716,164.1900,10/03.0/2021,2000,g  8.5,6.0
# From MPEC 2021-S45
57P/duToit-Neujmin-Delporte,e,2.8509,188.7750,115.2623,3.446948,0.1540111,0.50097591,357.7789,10/03.0/2021,2000,g 12.5,6.0
# From MPEC 2021-O56
58P/Jackson-Neujmin,e,13.1086,159.0748,200.4895,4.085491,0.1193542,0.66279545,58.8878,10/03.0/2021,2000,g 15.5,6.0
